[{"OBJECT_NAME":"KINEIS-1C","OBJECT_ID":"2024-114C","EPOCH":"2026-03-10T00:10:11.544384","MEAN_MOTION":14.80409337,"ECCENTRICITY":0.00022495,"INCLINATION":97.9945,"RA_OF_ASC_NODE":93.4647,"ARG_OF_PERICENTER":117.2178,"MEAN_ANOMALY":242.9263,"EPHEMERIS_TYPE":0,"CLASSIFICATION_TYPE":"U","NORAD_CAT_ID":60081,"ELEMENT_SET_NO":999,"REV_AT_EPOCH":9270,"BSTAR":0.00020502578,"MEAN_MOTION_DOT":1.513e-5,"MEAN_MOTION_DDOT":0},{"OBJECT_NAME":"CZ-6A DEB","OBJECT_ID":"2024-140TE","EPOCH":"2026-03-09T14:15:52.010208","MEAN_MOTION":14.60552911,"ECCENTRICITY":0.0091089,"INCLINATION":89.0388,"RA_OF_ASC_NODE":285.1287,"ARG_OF_PERICENTER":244.8325,"MEAN_ANOMALY":114.3421,"EPHEMERIS_TYPE":0,"CLASSIFICATION_TYPE":"U","NORAD_CAT_ID":61293,"ELEMENT_SET_NO":999,"REV_AT_EPOCH":8120,"BSTAR":0.0011803,"MEAN_MOTION_DOT":6.094e-5,"MEAN_MOTION_DDOT":0}]
